#aV2011 11  8  0  0   .00000000      96 DD+AD WGS84 FIT  NGA
## 1661 172800.00000000   900.00000000 55873  .0000000000000
+   31     1  2  3  4  5  6  7  8  9 10 11 12 13 14 15 16 17
+         18 19 20 21 22 23 25 26 27 28 29 30 31 32  0  0  0
+          0  0  0  0  0  0  0  0  0  0  0  0  0  0  0  0  0
+          0  0  0  0  0  0  0  0  0  0  0  0  0  0  0  0  0
+          0  0  0  0  0  0  0  0  0  0  0  0  0  0  0  0  0
++         0  0  0  0  0  0  0  0  0  0  0  0  0  0  0  0  0
++         0  0  0  0  0  0  0  0  0  0  0  0  0  0  0  0  0
++         0  0  0  0  0  0  0  0  0  0  0  0  0  0  0  0  0
++         0  0  0  0  0  0  0  0  0  0  0  0  0  0  0  0  0
++         0  0  0  0  0  0  0  0  0  0  0  0  0  0  0  0  0
%c cc cc ccc ccc cccc cccc cccc cccc ccccc ccccc ccccc ccccc
%c cc cc ccc ccc cccc cccc cccc cccc ccccc ccccc ccccc ccccc
%f  0.0000000  0.000000000  0.00000000000  0.000000000000000
%f  0.0000000  0.000000000  0.00000000000  0.000000000000000
%i    0    0    0    0      0      0      0      0         0
%i    0    0    0    0      0      0      0      0         0
/*      NGA, ST. LOUIS,MO.                                  
/*   EPHEMERIS COMPUTED FROM  3 DAYS OF DATA                
/* CCCCCCCCCCCCCCCCCCCCCCCCCCCCCCCCCCCCCCCCCCCCCCCCCCCCCCCCC
/* CCCCCCCCCCCCCCCCCCCCCCCCCCCCCCCCCCCCCCCCCCCCCCCCCCCCCCCCC
*  2011 11  8 16 45   .00000000                                                 
P  1  17278.969358   3551.114010  19842.323348     81.846900                    
V  1  10206.556451  23102.173010 -13007.372590       .226436                    
P  2 -14170.720700 -22537.724314  -3260.928510    364.668092                    
V  2    815.603524  -5117.369061  30582.050833       .018438                    
P  3  16850.127149  11918.836573 -17323.672764    792.317120                    
V  3 -20963.800682   3267.396451 -18340.473308       .051845                    
P  4  -4580.948795 -24320.043375   8940.194989    284.803158                    
V  4   8365.040231   9066.962684  28549.522436       .113019                    
P  5  -9531.907351 -12839.074263 -21207.469721   -242.566803                    
V  5  15558.662016 -21998.168651   6450.501812      -.049675                    
P  6  12585.761140  13953.186052 -18731.738346    -35.284186                    
V  6 -24082.999270   1296.883301 -14850.962811       .059938                    
P  7  10634.459222 -11445.843277 -21423.210883     36.230899                    
V  7  12238.017146  24349.329272  -7165.014306       .021738                    
P  8   4073.949996 -19831.326987 -16815.797926       .034625                    
V  8   9028.366286  19688.242091 -21521.381358      -.000596                    
P  9 -17390.871274  -8121.724201  17801.100325    117.047303                    
V  9  -9493.939333 -21728.150415 -18647.506456       .024737                    
P 10   6722.172300 -23159.805526 -10905.616385    -18.494737                    
V 10  10340.898345  -9439.792350  27374.167734      -.010804                    
P 11  21449.099205   8140.304879  13289.844402   -202.153414                    
V 11   8727.062156  15690.319768 -22730.283569      -.034738                    
P 12 -18413.870574   4452.117976  18549.826012     33.496721                    
V 12  12458.381443 -20039.092969  17350.436897       .023255                    
P 13  22230.407026  -5612.227601 -13615.782121    242.498649                    
V 13  16554.429198   4061.708730  25527.143752      -.019672                    
P 14  -3756.997587  14459.115102  22131.959694    180.348889                    
V 14 -27360.530663  -3784.959361  -2330.114970       .015953                    
P 15 -25882.947981  -4514.628754  -4525.007848    -99.952123                    
V 15   5875.860081  -2724.789633 -30642.950953       .011583                    
P 16   8757.778960  12652.417465 -21593.285099   -207.802964                    
V 16 -16639.785723  21837.280104   6329.238794      -.020235                    
P 17   4632.396600 -14762.981074  21714.175184    166.753239                    
V 17  27063.759339   3182.284564  -3870.356090      -.019404                    
P 18 -16981.642811  19762.735748  -3666.462778    166.117801                    
V 18   -392.607962  -6516.682413 -30864.938161       .018570                    
P 19  24493.374597   8518.553247  -6608.314221   -202.790972                    
V 19  -8545.608350   1136.674199 -29993.738625      -.039836                    
P 20  18887.334532  -5831.487759  17557.818442     55.753790                    
V 20 -10043.215947  20485.466825  17528.677830       .006877                    
P 21  -8600.875084  15293.655886 -19329.514014   -183.192945                    
V 21 -12823.332318 -22447.083269 -12383.877873      -.024518                    
P 22  -8074.893263  23580.279394   9195.715182    143.514798                    
V 22  -9443.641766   7459.809974 -28071.476570      -.001923                    
P 23  26428.451586   -704.912728  -4092.306086    261.069364                    
V 23   4961.262235   2836.957027  30991.477274      -.032247                    
P 25 -18948.494508  14874.944932  11125.003542     26.902364                    
V 25   5841.925265 -13112.088426  27448.203557       .013979                    
P 26 -18474.046508 -12853.772524 -15006.963172   -219.048517                    
V 26  17772.015348   1586.378903 -23837.965761      -.133760                    
P 27 -18378.908615 -13558.498297  14530.632084    323.599424                    
V 27  -7121.310173 -15652.520241 -24339.667092       .039288                    
P 28  11123.293729 -23060.111893   7080.651017     82.509680                    
V 28   6810.720071  -5324.781259 -30569.220207       .032531                    
P 29 -22450.557696   6357.166634 -12589.945613    255.644570                    
V 29 -15749.800042  -4068.380348  25937.911718       .033837                    
P 30  -4505.492636  24141.444688 -10550.558805     53.251439                    
V 30  -8209.638483  10156.578646  27737.101945      -.071308                    
P 31   7020.720862  24760.792247   6281.275937    166.667664                    
V 31  -5334.269847  -6044.910296  30994.056730       .052454                    
P 32  15738.814368   4357.341645  21117.143189   -358.531396                    
V 32 -15837.307563  21081.033747   7989.248979      -.060223                    
EOF
